ONEWEB-0520             
1 54138U 22138AB  24253.92894029  .00000131  00000+0  29533-3 0  9995
2 54138  87.9092  73.3117 0001389 105.7175 254.4111 13.19724964 91719
ONEWEB-0521             
1 54139U 22138AC  24253.88629810  .00000227  00000+0  53380-3 0  9998
2 54139  87.9090  73.3120 0001730  80.9163 279.2166 13.19721943 91655
ONEWEB-0522             
1 54140U 22138AD  24253.94157587 -.00000027  00000+0 -99219-4 0  9996
2 54140  87.9089  73.3026 0001707  93.1929 266.9399 13.19724103 91708
ONEWEB-0523             
1 54141U 22138AE  24253.88565849  .00000032  00000+0  47869-4 0  9992
2 54141  87.9226  42.7944 0002421  80.8466 279.2941 13.20772725 94128
ONEWEB-0524             
1 54142U 22138AF  24253.87461984  .00000019  00000+0  14866-4 0  9993
2 54142  87.9227  42.7996 0002788 102.7219 257.4226 13.20770356 94125
ONEWEB-0525             
1 54143U 22138AG  24253.88469800  .00000028  00000+0  36998-4 0  9990
2 54143  87.9094  73.3253 0001443  98.7194 261.4102 13.19727374 91717
ONEWEB-0526             
1 54144U 22138AH  24253.91787703  .00000118  00000+0  26128-3 0  9993
2 54144  87.9092  73.3122 0001659  93.9071 266.2251 13.19727101 91694
ONEWEB-0529             
1 54145U 22138AJ  24253.92105096  .00000127  00000+0  28560-3 0  9996
2 54145  87.9097  73.3326 0001552 100.5110 259.6197 13.19724923 91714
